[
    {
        "Altitude(m)": 553468.2707562292,
        "Argument of Periapsis(deg)": 0.026491964442854003,
        "Eccentricity": 0.0,
        "Inclination(deg)": 53.0,
        "Latitude(deg)": 11.87496238920183,
        "Longitude(deg)": -84.11708618752152,
        "Mean Anomaly(deg)": 14.911871470310304,
        "RAAN(deg)": 9.960573474112067,
        "Satellite Name": "Starlink Shell 1 64",
        "Satellite Number": 64,
        "Semi-Major Axis(m)": 6931778.249405717,
        "Time(s)": 760
    },
    {
        "Altitude(m)": 553469.6712196886,
        "Argument of Periapsis(deg)": 0.02684054292236524,
        "Eccentricity": 0.0,
        "Inclination(deg)": 53.0,
        "Latitude(deg)": 12.372274887318978,
        "Longitude(deg)": -83.76433117815755,
        "Mean Anomaly(deg)": 15.538702673867112,
        "RAAN(deg)": 9.960054704034594,
        "Satellite Name": "Starlink Shell 1 64",
        "Satellite Number": 64,
        "Semi-Major Axis(m)": 6931778.249405717,
        "Time(s)": 770
    },
    {
        "Altitude(m)": 553473.6618403702,
        "Argument of Periapsis(deg)": 0.027189121401876473,
        "Eccentricity": 0.0,
        "Inclination(deg)": 53.0,
        "Latitude(deg)": 12.869001174068067,
        "Longitude(deg)": -83.41008113130715,
        "Mean Anomaly(deg)": 16.165533877423773,
        "RAAN(deg)": 9.959535933957122,
        "Satellite Name": "Starlink Shell 1 64",
        "Satellite Number": 64,
        "Semi-Major Axis(m)": 6931778.249405717,
        "Time(s)": 780
    },
    {
        "Altitude(m)": 553480.2179012952,
        "Argument of Periapsis(deg)": 0.02753769988138771,
        "Eccentricity": 0.0,
        "Inclination(deg)": 53.0,
        "Latitude(deg)": 13.365114369239947,
        "Longitude(deg)": -83.05426976727423,
        "Mean Anomaly(deg)": 16.79236508098043,
        "RAAN(deg)": 9.959017163879649,
        "Satellite Name": "Starlink Shell 1 64",
        "Satellite Number": 64,
        "Semi-Major Axis(m)": 6931778.249405717,
        "Time(s)": 790
    },
    {
        "Altitude(m)": 553489.3135167304,
        "Argument of Periapsis(deg)": 0.02788627836089895,
        "Eccentricity": 0.0,
        "Inclination(deg)": 53.0,
        "Latitude(deg)": 13.860587256194341,
        "Longitude(deg)": -82.69683063907348,
        "Mean Anomaly(deg)": 17.419196284537243,
        "RAAN(deg)": 9.958498393802177,
        "Satellite Name": "Starlink Shell 1 64",
        "Satellite Number": 64,
        "Semi-Major Axis(m)": 6931778.249405717,
        "Time(s)": 800
    },
    {
        "Altitude(m)": 553500.9216477738,
        "Argument of Periapsis(deg)": 0.02823485684041019,
        "Eccentricity": 0.0,
        "Inclination(deg)": 53.0,
        "Latitude(deg)": 14.3553922661582,
        "Longitude(deg)": -82.33769660118796,
        "Mean Anomaly(deg)": 18.046027488093902,
        "RAAN(deg)": 9.957979623724702,
        "Satellite Name": "Starlink Shell 1 64",
        "Satellite Number": 64,
        "Semi-Major Axis(m)": 6931778.249405717,
        "Time(s)": 810
    },
    {
        "Altitude(m)": 553515.0141184763,
        "Argument of Periapsis(deg)": 0.028583435319921423,
        "Eccentricity": 0.0,
        "Inclination(deg)": 53.0,
        "Latitude(deg)": 14.849501462206614,
        "Longitude(deg)": -81.97679927829785,
        "Mean Anomaly(deg)": 18.67285869165061,
        "RAAN(deg)": 9.95746085364723,
        "Satellite Name": "Starlink Shell 1 64",
        "Satellite Number": 64,
        "Semi-Major Axis(m)": 6931778.249405717,
        "Time(s)": 820
    },
    {
        "Altitude(m)": 553531.561632533,
        "Argument of Periapsis(deg)": 0.028932013799432665,
        "Eccentricity": 0.0,
        "Inclination(deg)": 53.0,
        "Latitude(deg)": 15.342886522911362,
        "Longitude(deg)": -81.61407004687044,
        "Mean Anomaly(deg)": 19.299689895207372,
        "RAAN(deg)": 9.956942083569757,
        "Satellite Name": "Starlink Shell 1 64",
        "Satellite Number": 64,
        "Semi-Major Axis(m)": 6931778.249405717,
        "Time(s)": 830
    },
    {
        "Altitude(m)": 553550.5337905033,
        "Argument of Periapsis(deg)": 0.029280592278943897,
        "Eccentricity": 0.0,
        "Inclination(deg)": 53.0,
        "Latitude(deg)": 15.835518725646317,
        "Longitude(deg)": -81.24943950388423,
        "Mean Anomaly(deg)": 19.926521098764034,
        "RAAN(deg)": 9.956423313492284,
        "Satellite Name": "Starlink Shell 1 64",
        "Satellite Number": 64,
        "Semi-Major Axis(m)": 6931778.249405717,
        "Time(s)": 840
    },
    {
        "Altitude(m)": 553571.8991075782,
        "Argument of Periapsis(deg)": 0.029629170758455132,
        "Eccentricity": 0.0,
        "Inclination(deg)": 53.0,
        "Latitude(deg)": 16.327368929537016,
        "Longitude(deg)": -80.88283693558246,
        "Mean Anomaly(deg)": 20.55335230232074,
        "RAAN(deg)": 9.955904543414812,
        "Satellite Name": "Starlink Shell 1 64",
        "Satellite Number": 64,
        "Semi-Major Axis(m)": 6931778.249405717,
        "Time(s)": 850
    },
    {
        "Altitude(m)": 553595.6250318477,
        "Argument of Periapsis(deg)": 0.02997774923796637,
        "Eccentricity": 0.0,
        "Inclination(deg)": 53.0,
        "Latitude(deg)": 16.818407558040608,
        "Longitude(deg)": -80.51419146724992,
        "Mean Anomaly(deg)": 21.1801835058775,
        "RAAN(deg)": 9.955385773337339,
        "Satellite Name": "Starlink Shell 1 64",
        "Satellite Number": 64,
        "Semi-Major Axis(m)": 6931778.249405717,
        "Time(s)": 860
    },
    {
        "Altitude(m)": 553621.6779631034,
        "Argument of Periapsis(deg)": 0.030326327717477602,
        "Eccentricity": 0.0,
        "Inclination(deg)": 53.0,
        "Latitude(deg)": 17.30860458114537,
        "Longitude(deg)": -80.14343069161735,
        "Mean Anomaly(deg)": 21.807014709434206,
        "RAAN(deg)": 9.954867003259865,
        "Satellite Name": "Starlink Shell 1 64",
        "Satellite Number": 64,
        "Semi-Major Axis(m)": 6931778.249405717,
        "Time(s)": 870
    },
    {
        "Altitude(m)": 553650.0232721283,
        "Argument of Periapsis(deg)": 0.030674906196988847,
        "Eccentricity": 0.0,
        "Inclination(deg)": 53.0,
        "Latitude(deg)": 17.797929497176582,
        "Longitude(deg)": -79.77048181883299,
        "Mean Anomaly(deg)": 22.433845912990915,
        "RAAN(deg)": 9.954348233182394,
        "Satellite Name": "Starlink Shell 1 64",
        "Satellite Number": 64,
        "Semi-Major Axis(m)": 6931778.249405717,
        "Time(s)": 880
    },
    {
        "Altitude(m)": 553680.6253204781,
        "Argument of Periapsis(deg)": 0.031023484676500086,
        "Eccentricity": 0.0,
        "Inclination(deg)": 53.0,
        "Latitude(deg)": 18.286351314196704,
        "Longitude(deg)": -79.39527114561231,
        "Mean Anomaly(deg)": 23.060677116547627,
        "RAAN(deg)": 9.95382946310492,
        "Satellite Name": "Starlink Shell 1 64",
        "Satellite Number": 64,
        "Semi-Major Axis(m)": 6931778.249405717,
        "Time(s)": 890
    },
    {
        "Altitude(m)": 553713.4474807599,
        "Argument of Periapsis(deg)": 0.03137206315601132,
        "Eccentricity": 0.0,
        "Inclination(deg)": 53.0,
        "Latitude(deg)": 18.773838530988304,
        "Longitude(deg)": -79.01772352457441,
        "Mean Anomaly(deg)": 23.687508320104392,
        "RAAN(deg)": 9.953310693027449,
        "Satellite Name": "Starlink Shell 1 64",
        "Satellite Number": 64,
        "Semi-Major Axis(m)": 6931778.249405717,
        "Time(s)": 900
    },
    {
        "Altitude(m)": 553748.4521573442,
        "Argument of Periapsis(deg)": 0.03172064163552255,
        "Eccentricity": 0.0,
        "Inclination(deg)": 53.0,
        "Latitude(deg)": 19.26035911760712,
        "Longitude(deg)": -78.63776334667996,
        "Mean Anomaly(deg)": 24.31433952366105,
        "RAAN(deg)": 9.952791922949976,
        "Satellite Name": "Starlink Shell 1 64",
        "Satellite Number": 64,
        "Semi-Major Axis(m)": 6931778.249405717,
        "Time(s)": 910
    },
    {
        "Altitude(m)": 553785.6008075852,
        "Argument of Periapsis(deg)": 0.0320692201150338,
        "Eccentricity": 0.0,
        "Inclination(deg)": 53.0,
        "Latitude(deg)": 19.745880495495353,
        "Longitude(deg)": -78.25531401107249,
        "Mean Anomaly(deg)": 24.941170727217813,
        "RAAN(deg)": 9.952273152872504,
        "Satellite Name": "Starlink Shell 1 64",
        "Satellite Number": 64,
        "Semi-Major Axis(m)": 6931778.249405717,
        "Time(s)": 920
    },
    {
        "Altitude(m)": 553824.8539634214,
        "Argument of Periapsis(deg)": 0.032417798594545036,
        "Eccentricity": 0.0,
        "Inclination(deg)": 53.0,
        "Latitude(deg)": 20.230369517141966,
        "Longitude(deg)": -77.8702973952491,
        "Mean Anomaly(deg)": 25.568001930774514,
        "RAAN(deg)": 9.951754382795029,
        "Satellite Name": "Starlink Shell 1 64",
        "Satellite Number": 64,
        "Semi-Major Axis(m)": 6931778.249405717,
        "Time(s)": 930
    },
    {
        "Altitude(m)": 553866.1712534922,
        "Argument of Periapsis(deg)": 0.03276637707405627,
        "Eccentricity": 0.0,
        "Inclination(deg)": 53.0,
        "Latitude(deg)": 20.71379244528121,
        "Longitude(deg)": -77.48263483848797,
        "Mean Anomaly(deg)": 26.194833134331173,
        "RAAN(deg)": 9.951235612717557,
        "Satellite Name": "Starlink Shell 1 64",
        "Satellite Number": 64,
        "Semi-Major Axis(m)": 6931778.249405717,
        "Time(s)": 940
    }
]